QIANFAN-25              
1 61558U 24185G   25298.96459972  .00000693  00000+0  41577-3 0  9996
2 61558  88.9773  83.5891 0010671  94.3135 265.9267 14.05840373 62799
QIANFAN-26              
1 61559U 24185H   25298.96186114  .00000414  00000+0  40172-3 0  9993
2 61559  88.9772  84.9010 0006767 142.8575 217.3061 13.77771934 62095
QIANFAN-27              
1 61560U 24185J   25298.93504445  .00000886  00000+0  35659-3 0  9990
2 61560  88.9770  82.5417 0010062  88.1743 272.0604 14.27241160 63341
QIANFAN-28              
1 61561U 24185K   25298.93971259  .00001389  00000+0  55565-3 0  9999
2 61561  88.9787  82.5405 0009224  88.3543 271.8708 14.27881769 63353
QIANFAN-29              
1 61562U 24185L   25298.96817320  .00000253  00000+0  37355-3 0  9997
2 61562  88.9747  86.2411 0010131 179.8234 180.2923 13.50986449 61345
QIANFAN-30              
1 61563U 24185M   25298.90688107  .00000209  00000+0  31035-3 0  9991
2 61563  88.9767  85.7544 0008079 162.5293 197.6137 13.49963207 61615
QIANFAN-31              
1 61564U 24185N   25298.93498403  .00000268  00000+0  35515-3 0  9995
2 61564  88.9753  85.6292 0007822 158.0514 202.0978 13.57937516 61674
QIANFAN-32              
1 61565U 24185P   25298.90176547  .00000215  00000+0  31588-3 0  9993
2 61565  88.9810  85.8746 0009061 190.9100 169.1856 13.50714552 61582
